MALLIGYONG-1            
1 58400U 23179A   24006.85026033  .00005339  00000+0  23750-3 0  9997
2 58400  97.4255 256.0179 0017377 112.8366 247.4707 15.21778441  7034
